{
  "fetched_at": "2026-05-05T08:02:40.247795Z",
  "source": "celestrak.org/NORAD/elements/gp.php?GROUP=active",
  "satellites": {
    "42969": {
      "name": "SENTINEL-5P",
      "line1": "1 42969U 17064A   26124.78238485  .00000066  00000+0  52310-4 0  9994",
      "line2": "2 42969  98.7948  67.2272 0001211  79.2945 280.8367 14.19511621443404"
    },
    "25994": {
      "name": "TERRA",
      "line1": "1 25994U 99068A   26124.81026206  .00000378  00000+0  85976-4 0  9997",
      "line2": "2 25994  97.9490 176.0692 0002708  37.9309  52.9949 14.61068289403277"
    },
    "27424": {
      "name": "AQUA",
      "line1": "1 27424U 02022A   26124.86630397  .00000840  00000+0  17701-3 0  9992",
      "line2": "2 27424  98.4254  93.2936 0002122  86.5346 303.4966 14.62090699276949"
    },
    "37849": {
      "name": "SUOMI NPP",
      "line1": "1 37849U 11061A   26124.85049308  .00000083  00000+0  60225-4 0  9991",
      "line2": "2 37849  98.7935  66.0284 0002848  88.3745 271.7757 14.19507929752295"
    },
    "43013": {
      "name": "NOAA 20 (JPSS-1)",
      "line1": "1 43013U 17073A   26124.79334654  .00000075  00000+0  56295-4 0  9997",
      "line2": "2 43013  98.7754  64.6461 0001961  61.1471 298.9902 14.19549416438319"
    },
    "54234": {
      "name": "NOAA 21 (JPSS-2)",
      "line1": "1 54234U 22150A   26124.82754747  .00000052  00000+0  45123-4 0  9992",
      "line2": "2 54234  98.7043  64.3496 0001363   3.1946 356.9239 14.19557443180390"
    },
    "39084": {
      "name": "LANDSAT 8",
      "line1": "1 39084U 13008A   26124.83172752  .00000307  00000+0  78095-4 0  9998",
      "line2": "2 39084  98.1845 195.6097 0001278 103.2224 256.9118 14.57138426691582"
    },
    "49260": {
      "name": "LANDSAT 9",
      "line1": "1 49260U 21088A   26124.79757237  .00000326  00000+0  82269-4 0  9993",
      "line2": "2 49260  98.1865 195.6517 0001357 106.0599 254.0749 14.57127384244687"
    },
    "40697": {
      "name": "SENTINEL-2A",
      "line1": "1 40697U 15028A   26124.85801618 -.00000034  00000+0  37374-5 0  9990",
      "line2": "2 40697  98.5621 200.3232 0001235  84.2648 275.8675 14.30825896567536"
    },
    "42063": {
      "name": "SENTINEL-2B",
      "line1": "1 42063U 17013A   26124.85083403 -.00000070  00000+0 -99937-5 0  9993",
      "line2": "2 42063  98.5647 200.2353 0001239  89.2745 270.8580 14.30816360478440"
    },
    "41335": {
      "name": "SENTINEL-3A",
      "line1": "1 41335U 16011A   26124.80616416  .00000106  00000+0  62044-4 0  9998",
      "line2": "2 41335  98.6265 192.8080 0001012 102.7290 257.4003 14.26733912531870"
    },
    "43437": {
      "name": "SENTINEL-3B",
      "line1": "1 43437U 18039A   26124.77932314  .00000111  00000+0  63791-4 0  9995",
      "line2": "2 43437  98.6263 192.9296 0001578  86.2669 273.8691 14.26736426417934"
    },
    "38771": {
      "name": "METOP-B",
      "line1": "1 38771U 12049A   26124.82839654  .00000094  00000+0  62961-4 0  9992",
      "line2": "2 38771  98.6537 177.1854 0003558 107.7171 252.4395 14.21435786707100"
    },
    "43689": {
      "name": "METOP-C",
      "line1": "1 43689U 18087A   26124.77960794  .00000098  00000+0  64461-4 0  9999",
      "line2": "2 43689  98.6669 185.1703 0000434  48.7368 311.3847 14.21500132388665"
    },
    "56128": {
      "name": "STARLINK-6122",
      "line1": "1 56128U 23046AN  26124.51717363  .00055013  00000+0  20123-2 0  9998",
      "line2": "2 56128  43.0026 192.0995 0001562 280.3825  79.6850 15.27277153170739"
    },
    "49055": {
      "name": "STAR ONE D2",
      "line1": "1 49055U 21069A   26121.89904535 -.00000259  00000+0  00000+0 0  9991",
      "line2": "2 49055   0.0230 134.4655 0001164 289.2752  49.7526  1.00271514 17489"
    },
    "54743": {
      "name": "METEOSAT-12 (MTG-I1)",
      "line1": "1 54743U 22170C   26124.83623810  .00000000  00000+0  00000+0 0  9999",
      "line2": "2 54743   0.7327  23.6368 0001056 359.6309 140.1327  1.00271614 12541"
    }
  }
}